NAVSTAR 48 (USA 151)    
1 26407U 00040A   26140.92185866  .00000001  00000+0  00000+0 0  9990
2 26407  54.8555 216.2454 0121371 302.3568  95.0221  2.00557408189401
NAVSTAR 51 (USA 166)    
1 27663U 03005A   26141.20320657 -.00000002  00000+0  00000+0 0  9992
2 27663  54.8865 216.0410 0147959  53.0181 323.1350  2.00561964170771
NAVSTAR 54 (USA 177)    
1 28190U 04009A   26140.96297556 -.00000038  00000+0  00000+0 0  9995
2 28190  54.8533 276.7867 0114891 171.8562 184.6101  2.00555519162391
NAVSTAR 56 (USA 180)    
1 28474U 04045A   26140.51751951 -.00000073  00000+0  00000+0 0  9994
2 28474  55.1525 326.0102 0169837 315.6873 144.1699  2.00554536157873
NAVSTAR 57 (USA 183)    
1 28874U 05038A   26140.98663155 -.00000037  00000+0  00000+0 0  9990
2 28874  54.9012 274.2748 0127705 295.9850 105.0887  2.00567467151290
NAVSTAR 58 (USA 190)    
1 29486U 06042A   26141.15482969  .00000057  00000+0  00000+0 0  9999
2 29486  54.7065 152.4120 0106205  53.8364   6.7266  2.00571322143856
NAVSTAR 59 (USA 192)    
1 29601U 06052A   26140.49716701  .00000008  00000+0  00000+0 0  9995
2 29601  54.9384 215.1038 0085680  90.5850 270.4658  2.00556589142859
NAVSTAR 60 (USA 196)    
1 32260U 07047A   26140.30335457 -.00000013  00000+0  00000+0 0  9997
2 32260  54.0757  81.2145 0165862  86.8522 275.0168  2.00556531136256
NAVSTAR 61 (USA 199)    
1 32384U 07062A   26140.59294359 -.00000034  00000+0  00000+0 0  9990
2 32384  55.0547 275.2615 0035203 163.8276 172.3061  2.00558310134958
NAVSTAR 62 (USA 201)    
1 32711U 08012A   26140.71561079  .00000056  00000+0  00000+0 0  9993
2 32711  54.4929 151.0221 0210582 247.4796 110.2991  2.00571648133203
NAVSTAR 64 (USA 206)    
1 35752U 09043A   26140.94838076 -.00000087  00000+0  00000+0 0  9990
2 35752  56.1938  28.5216 0053449  82.1083  97.7047  2.00555630122811
NAVSTAR 65 (USA 213)    
1 36585U 10022A   26140.60022088  .00000011  00000+0  00000+0 0  9991
2 36585  54.2728 209.6735 0126364  66.1075 340.0810  2.00561000117049
NAVSTAR 67 (USA 239)    
1 38833U 12053A   26140.39650313  .00000054  00000+0  00000+0 0  9996
2 38833  53.5805 144.7377 0178914  65.3858 296.4798  2.00566978 98882
NAVSTAR 68 (USA 242)    
1 39166U 13023A   26140.26272253 -.00000030  00000+0  00000+0 0  9998
2 39166  54.5269 270.1108 0141778  50.8847 310.3558  2.00563555 95322
NAVSTAR 69 (USA 248)    
1 39533U 14008A   26140.76256878  .00000054  00000+0  00000+0 0  9995
2 39533  53.6496 150.4381 0084131 230.7720 128.4990  2.00557982 89130
NAVSTAR 70 (USA 251)    
1 39741U 14026A   26140.53943509 -.00000075  00000+0  00000+0 0  9999
2 39741  56.5112 332.5936 0038491 326.8760  32.8945  2.00562929 87982
NAVSTAR 71 (USA 256)    
1 40105U 14045A   26140.13212899  .00000003  00000+0  00000+0 0  9993
2 40105  55.3358  89.5822 0032291 118.5671 241.7267  2.00556445 85510
NAVSTAR 72 (USA 258)    
1 40294U 14068A   26140.50287016 -.00000081  00000+0  00000+0 0  9998
2 40294  56.9692  32.0214 0066258  69.6062 291.1438  2.00574420 84651
NAVSTAR 73 (USA 260)    
1 40534U 15013A   26141.13788255  .00000007  00000+0  00000+0 0  9994
2 40534  53.1702 205.2964 0109055  40.0295 320.8426  2.00552911 81283
NAVSTAR 74 (USA 262)    
1 40730U 15033A   26140.29973745 -.00000030  00000+0  00000+0 0  9997
2 40730  54.0050 268.2360 0115011  30.1069 330.5399  2.00557583 79435
NAVSTAR 75 (USA 265)    
1 41019U 15062A   26140.85546038 -.00000083  00000+0  00000+0 0  9991
2 41019  56.9416  31.8641 0111353 231.3141 127.7233  2.00566822 77280
NAVSTAR 76 (USA 266)    
1 41328U 16007A   26140.94462129  .00000008  00000+0  00000+0 0  9998
2 41328  55.5081  90.5392 0096119 247.3053 111.6486  2.00552990 75294
NAVSTAR 77 (USA 289)    
1 43873U 18109A   26140.28832900  .00000011  00000+0  00000+0 0  9999
2 43873  55.6661  93.2866 0037942 198.6197 301.0092  2.00560163 54519
NAVSTAR 78 (USA 293)    
1 44506U 19056A   26140.82786065 -.00000077  00000+0  00000+0 0  9998
2 44506  55.6503 332.2294 0060640 197.3789 234.7170  2.00569187 49522
NAVSTAR 79 (USA 304)    
1 45854U 20041A   26141.06126522 -.00000086  00000+0  00000+0 0  9994
2 45854  56.6530  29.9956 0062891 204.8537 335.2837  2.00559093 43492
NAVSTAR 80 (USA 309)    
1 46826U 20078A   26140.91883904  .00000004  00000+0  00000+0 0  9990
2 46826  53.9832 211.8845 0072326 206.4637 206.3001  2.00564794 40963
NAVSTAR 81 (USA 319)    
1 48859U 21054A   26137.34480044 -.00000068  00000+0  00000+0 0  9995
2 48859  55.1876 333.6992 0024566 229.1389 308.8619  2.00570739 36131
NAVSTAR 82 (USA 343)    
1 55268U 23009A   26140.53842924  .00000057  00000+0  00000+0 0  9990
2 55268  55.1196 149.6044 0006779 315.8855  46.0765  2.00573311 24698
NAVSTAR 83 (USA 440)    
1 62339U 24242A   26140.67243697 -.00000081  00000+0  00000+0 0  9992
2 62339  54.8606 335.2961 0017301   3.5784 177.6674  2.00570826 10708
NAVSTAR 84 (USA 545)    
1 64202U 25116A   26140.41655708 -.00000083  00000+0  00000+0 0  9998
2 64202  55.2172  32.2478 0008479 336.1133 202.6616  2.00577610  7314
NAVSTAR 85 (USA 581)    
1 67588U 26017A   26140.77647786  .00000005  00000+0  00000+0 0  9998
2 67588  55.0717  89.8549 0022743 256.1685 103.5495  2.00571620431069
